NORAD_CAT_ID,OBJECT_NAME,OBJECT_TYPE,EPOCH,MEAN_MOTION,ECCENTRICITY,INCLINATION,RA_OF_ASC_NODE,ARG_OF_PERICENTER,MEAN_ANOMALY,BSTAR,MEAN_MOTION_DOT,MEAN_MOTION_DDOT,TLE_LINE0,TLE_LINE1,TLE_LINE2,SEMIMAJOR_AXIS,PERIOD,APOGEE,PERIGEE,DECAYED
55397.0,STARLINK-5224,PAYLOAD,2024-07-23 17:17:31,14.98327313,0.0002608,70.0007,102.2192,275.9945,84.0916,0.00013087,1.469e-05,0.0,0 STARLINK-5224,1 55397U 23014G   24205.72049990  .00001469  00000-0  13087-3 0  9994,2 55397  70.0007 102.2192 0002608 275.9945  84.0916 14.98327313 82637,6950.201,96.107,573.879,570.254,0.0
55397.0,STARLINK-5224,PAYLOAD,2024-07-24 02:54:20,14.9831584,0.0002695,70.0005,101.2073,264.0855,95.9996,0.00013597,1.529e-05,0.0,0 STARLINK-5224,1 55397U 23014G   24206.12106985  .00001529  00000-0  13597-3 0  9990,2 55397  70.0005 101.2073 0002695 264.0855  95.9996 14.98315840 82694,6950.237,96.108,573.975,570.229,0.0
55397.0,STARLINK-5224,PAYLOAD,2024-07-24 22:07:55,14.9833866,0.0003005,70.0003,99.1874,270.6956,89.3859,0.00013198,1.482e-05,0.0,0 STARLINK-5224,1 55397U 23014G   24206.92217580  .00001482  00000-0  13198-3 0  9997,2 55397  70.0003  99.1874 0003005 270.6956  89.3859 14.98338660 83755,6950.166,96.106,574.12,569.943,0.0
55397.0,STARLINK-5224,PAYLOAD,2024-07-25 02:56:19,14.98346126,0.0003504,69.9999,98.6859,265.9806,94.0952,0.00032977,3.846e-05,0.0,0 STARLINK-5224,1 55397U 23014G   24207.12245075  .00003846  00000-0  32977-3 0  9992,2 55397  69.9999  98.6859 0003504 265.9806  94.0952 14.98346126 82840,6950.143,96.106,574.443,569.573,0.0
55397.0,STARLINK-5224,PAYLOAD,2024-07-25 15:45:24,14.98333133,0.0003095,70.0012,97.3395,279.3732,80.7077,0.00039441,4.617e-05,0.0,0 STARLINK-5224,1 55397U 23014G   24207.65653935  .00004617  00000-0  39441-3 0  9998,2 55397  70.0012  97.3395 0003095 279.3732  80.7077 14.98333133 82925,6950.183,96.107,574.199,569.897,0.0
55397.0,STARLINK-5224,PAYLOAD,2024-07-25 22:09:57,14.98330891,0.0002795,70.002,96.6629,264.133,95.9511,0.0002193,2.525e-05,0.0,0 STARLINK-5224,1 55397U 23014G   24207.92357844  .00002525  00000-0  21930-3 0  9998,2 55397  70.0020  96.6629 0002795 264.1330  95.9511 14.98330891 83906,6950.19,96.107,573.998,570.113,0.0
55397.0,STARLINK-5224,PAYLOAD,2024-07-26 09:22:53,14.98331151,0.0003059,70.0004,95.4862,273.2041,86.8768,0.00021186,2.436e-05,0.0,0 STARLINK-5224,1 55397U 23014G   24208.39089885  .00002436  00000-0  21186-3 0  9991,2 55397  70.0004  95.4862 0003059 273.2041  86.8768 14.98331151 83978,6950.189,96.107,574.18,569.928,0.0
55397.0,STARLINK-5224,PAYLOAD,2024-07-26 15:47:25,14.98341029,0.0003212,69.9999,94.8122,275.1205,84.9587,1.9565e-05,1.4e-06,0.0,0 STARLINK-5224,1 55397U 23014G   24208.65793515  .00000140  00000-0  19565-4 0  9991,2 55397  69.9999  94.8122 0003212 275.1205  84.9587 14.98341029 83078,6950.159,96.106,574.256,569.791,0.0
55397.0,STARLINK-5224,PAYLOAD,2024-07-27 22:13:58,14.98331458,0.0003248,69.9997,91.614,274.86,85.2188,0.00010313,1.138e-05,0.0,0 STARLINK-5224,1 55397U 23014G   24209.92637541  .00001138  00000-0  10313-3 0  9997,2 55397  69.9997  91.6140 0003248 274.8600  85.2188 14.98331458 84207,6950.188,96.107,574.311,569.796,0.0
55397.0,STARLINK-5224,PAYLOAD,2024-07-28 01:26:15,14.98329332,0.0003251,69.9996,91.2774,274.8381,85.2407,6.9394e-05,7.35e-06,0.0,0 STARLINK-5224,1 55397U 23014G   24210.05989721  .00000735  00000-0  69394-4 0  9999,2 55397  69.9996  91.2774 0003251 274.8381  85.2407 14.98329332 83284,6950.195,96.107,574.319,569.8,0.0
55397.0,STARLINK-5224,PAYLOAD,2024-07-28 22:16:00,14.98327089,0.000314,69.9996,89.0886,268.5833,91.4966,1.971e-05,1.42e-06,0.0,0 STARLINK-5224,1 55397U 23014G   24210.92777991  .00000142  00000-0  19710-4 0  9998,2 55397  69.9996  89.0886 0003140 268.5833  91.4966 14.98327089 84357,6950.202,96.107,574.249,569.885,0.0
55397.0,STARLINK-5224,PAYLOAD,2024-07-29 01:28:16,14.98330172,0.0003078,69.9999,88.7524,268.8392,91.2414,4.9747e-05,5.01e-06,0.0,0 STARLINK-5224,1 55397U 23014G   24211.06129726  .00000501  00000-0  49747-4 0  9993,2 55397  69.9999  88.7524 0003078 268.8392  91.2414 14.98330172 83439,6950.192,96.107,574.197,569.918,0.0
55397.0,STARLINK-5224,PAYLOAD,2024-07-29 09:28:56,14.98329433,0.0003086,69.9999,87.9106,268.6093,91.4713,0.00014729,1.665e-05,0.0,0 STARLINK-5224,1 55397U 23014G   24211.39509464  .00001665  00000-0  14729-3 0  9993,2 55397  69.9999  87.9106 0003086 268.6093  91.4713 14.98329433 84423,6950.195,96.107,574.204,569.915,0.0
55397.0,STARLINK-5224,PAYLOAD,2024-07-29 22:18:00,14.98335263,0.0003129,69.9996,86.5637,267.8605,92.2196,0.00019364,2.219e-05,0.0,0 STARLINK-5224,1 55397U 23014G   24211.92917060  .00002219  00000-0  19364-3 0  9993,2 55397  69.9996  86.5637 0003129 267.8605  92.2196 14.98335263 84503,6950.177,96.107,574.216,569.867,0.0
55397.0,STARLINK-5224,PAYLOAD,2024-07-30 01:30:16,14.98337518,0.0003112,69.9997,86.227,267.8766,92.2037,0.00022063,2.541e-05,0.0,0 STARLINK-5224,1 55397U 23014G   24212.06268888  .00002541  00000-0  22063-3 0  9994,2 55397  69.9997  86.2270 0003112 267.8766  92.2037 14.98337518 83580,6950.17,96.107,574.198,569.872,0.0
55397.0,STARLINK-5224,PAYLOAD,2024-07-30 09:30:56,14.98333184,0.000308,69.9997,85.385,268.1113,91.9694,0.00015421,1.748e-05,0.0,0 STARLINK-5224,1 55397U 23014G   24212.39649262  .00001748  00000-0  15421-3 0  9997,2 55397  69.9997  85.3850 0003080 268.1113  91.9694 14.98333184 83634,6950.183,96.107,574.189,569.907,0.0
55397.0,STARLINK-5224,PAYLOAD,2024-07-30 22:20:01,14.98337426,0.000307,70.0002,84.0388,268.7599,91.3209,0.0001625,1.847e-05,0.0,0 STARLINK-5224,1 55397U 23014G   24212.93056944  .00001847  00000-0  16250-3 0  9997,2 55397  70.0002  84.0388 0003070 268.7599  91.3209 14.98337426 84651,6950.17,96.107,574.169,569.901,0.0
55397.0,STARLINK-5224,PAYLOAD,2024-07-31 14:21:22,14.98329491,0.0002938,70.0009,82.3557,270.1575,89.9248,-4.7872e-05,-6.64e-06,0.0,0 STARLINK-5224,1 55397U 23014G   24213.59817784 -.00000664  00000-0 -47872-4 0  9990,2 55397  70.0009  82.3557 0002938 270.1575  89.9248 14.98329491 84750,6950.194,96.107,574.101,570.017,0.0
55397.0,STARLINK-5224,PAYLOAD,2024-07-31 20:45:54,14.98328841,0.0002782,70.0006,81.6832,265.8852,94.1989,-7.7805e-05,-1.021e-05,0.0,0 STARLINK-5224,1 55397U 23014G   24213.86521885 -.00001021  00000-0 -77805-4 0  9991,2 55397  70.0006  81.6832 0002782 265.8852  94.1989 14.98328841 83859,6950.196,96.107,573.995,570.128,0.0
55397.0,STARLINK-5224,PAYLOAD,2024-07-31 22:22:02,14.98329829,0.0002825,70.0007,81.515,264.7276,95.356,-7.9652e-05,-1.043e-05,0.0,0 STARLINK-5224,1 55397U 23014G   24213.93197826 -.00001043  00000-0 -79652-4 0  9999,2 55397  70.0007  81.5150 0002825 264.7276  95.3560 14.98329829 84809,6950.193,96.107,574.022,570.095,0.0
55397.0,STARLINK-5224,PAYLOAD,2024-08-01 12:47:14,14.98336066,0.0003267,69.999,79.9992,267.9764,92.1021,6.2266e-05,6.5e-06,0.0,0 STARLINK-5224,1 55397U 23014G   24214.53280862  .00000650  00000-0  62266-4 0  9993,2 55397  69.9990  79.9992 0003267 267.9764  92.1021 14.98336066 83953,6950.174,96.107,574.31,569.769,0.0
55397.0,STARLINK-5224,PAYLOAD,2024-08-01 22:24:02,14.98364577,0.0003242,69.9997,78.9867,271.7472,88.3316,-0.00022977,-2.836e-05,0.0,0 STARLINK-5224,1 55397U 23014G   24214.93335832 -.00002836  00000-0 -22977-3 0  9999,2 55397  69.9997  78.9867 0003242 271.7472  88.3316 14.98364577 84955,6950.086,96.105,574.204,569.698,0.0
55397.0,STARLINK-5224,PAYLOAD,2024-08-02 00:00:10,14.98347075,0.000317,69.9993,78.8207,266.6075,93.4721,0.00015985,1.816e-05,0.0,0 STARLINK-5224,1 55397U 23014G   24215.00011790  .00001816  00000-0  15985-3 0  9998,2 55397  69.9993  78.8207 0003170 266.6075  93.4721 14.98347075 84029,6950.14,96.106,574.208,569.802,0.0
55397.0,STARLINK-5224,PAYLOAD,2024-08-02 08:00:51,14.98332533,0.0002946,70.0013,77.982,265.1116,94.9707,0.00010052,1.107e-05,0.0,0 STARLINK-5224,1 55397U 23014G   24215.33392845  .00001107  00000-0  10052-3 0  9990,2 55397  70.0013  77.9820 0002946 265.1116  94.9707 14.98332533 84074,6950.185,96.107,574.098,570.003,0.0
55397.0,STARLINK-5224,PAYLOAD,2024-08-02 20:49:56,14.98319823,0.0002979,69.9999,76.6333,262.8005,97.2816,2.8226e-05,2.44e-06,0.0,0 STARLINK-5224,1 55397U 23014G   24215.86801933  .00000244  00000-0  28226-4 0  9995,2 55397  69.9999  76.6333 0002979 262.8005  97.2816 14.98319823 84159,6950.224,96.108,574.16,570.019,0.0
55397.0,STARLINK-5224,PAYLOAD,2024-08-02 22:26:05,14.98318384,0.0002999,70.0004,76.4659,265.9587,94.1229,3.7725e-05,3.57e-06,0.0,0 STARLINK-5224,1 55397U 23014G   24215.93478051  .00000357  00000-0  37725-4 0  9993,2 55397  70.0004  76.4659 0002999 265.9587  94.1229 14.98318384 85100,6950.229,96.108,574.178,570.009,0.0
55397.0,STARLINK-5224,PAYLOAD,2024-08-03 00:02:12,14.98322209,0.0003061,69.9997,76.2962,265.9316,94.1493,6.1253e-05,6.38e-06,0.0,0 STARLINK-5224,1 55397U 23014G   24216.00153775  .00000638  00000-0  61253-4 0  9990,2 55397  69.9997  76.2962 0003061 265.9316  94.1493 14.98322209 85119,6950.217,96.107,574.209,569.955,0.0
55397.0,STARLINK-5224,PAYLOAD,2024-08-03 20:51:56,14.98341157,0.0003087,69.9996,74.1079,267.4663,92.6143,7.1535e-05,7.61e-06,0.0,0 STARLINK-5224,1 55397U 23014G   24216.86940545  .00000761  00000-0  71535-4 0  9994,2 55397  69.9996  74.1079 0003087 267.4663  92.6143 14.98341157 84302,6950.158,96.106,574.169,569.878,0.0
55397.0,STARLINK-5224,PAYLOAD,2024-08-03 22:28:04,14.98342829,0.0003127,69.9995,73.9392,270.0329,90.0471,7.5175e-05,8.04e-06,0.0,0 STARLINK-5224,1 55397U 23014G   24216.93616437  .00000804  00000-0  75175-4 0  9994,2 55397  69.9995  73.9392 0003127 270.0329  90.0471 14.98342829 85258,6950.153,96.106,574.192,569.845,0.0
55397.0,STARLINK-5224,PAYLOAD,2024-08-04 14:29:25,14.98331602,0.0002809,70.0005,72.2562,271.7635,88.3202,0.00029926,3.48e-05,0.0,0 STARLINK-5224,1 55397U 23014G   24217.60377171  .00003480  00000-0  29926-3 0  9993,2 55397  70.0005  72.2562 0002809 271.7635  88.3202 14.98331602 85358,6950.188,96.107,574.005,570.101,0.0
